COMMENT,ORIGINATOR,NORAD_CAT_ID,OBJECT_NAME,OBJECT_TYPE,CLASSIFICATION_TYPE,INTLDES,EPOCH,EPOCH_MICROSECONDS,MEAN_MOTION,ECCENTRICITY,INCLINATION,RA_OF_ASC_NODE,ARG_OF_PERICENTER,MEAN_ANOMALY,EPHEMERIS_TYPE,ELEMENT_SET_NO,REV_AT_EPOCH,BSTAR,MEAN_MOTION_DOT,MEAN_MOTION_DDOT,FILE,TLE_LINE0,TLE_LINE1,TLE_LINE2,OBJECT_ID,OBJECT_NUMBER,SEMIMAJOR_AXIS,PERIOD,APOGEE,PERIGEE,DECAYED
"GENERATED VIA SPACETRACK.ORG API","18 SPCS","55094","SPACEBEE-165","PAYLOAD","U","23001CP","2024-02-24 11:54:11","735424","15.34557514","0.0010222","97.4381","120.122","190.764","169.3385","0","999","6358","0.001092","0.0003667","0","4197491","0 SPACEBEE-165","1 55094U 23001CP  24055.49596916  .00036670  00000-0  10920-2 0  9990","2 55094  97.4381 120.1220 0010222 190.7640 169.3385 15.34557514 63586","2023-001CP","55094","6840.372","93.838","469.229","455.245","0"
"GENERATED VIA SPACETRACK.ORG API","18 SPCS","55094","SPACEBEE-165","PAYLOAD","U","23001CP","2024-02-24 15:01:59","549088","15.34570715","0.0010249","97.438","120.2536","190.3299","169.7735","0","999","6360","0.0011786","0.00039617","0","4197760","0 SPACEBEE-165","1 55094U 23001CP  24055.62638367  .00039617  00000-0  11786-2 0  9997","2 55094  97.4380 120.2536 0010249 190.3299 169.7735 15.34570715 63605","2023-001CP","55094","6840.333","93.837","469.209","455.187","0"
"GENERATED VIA SPACETRACK.ORG API","18 SPCS","55094","SPACEBEE-165","PAYLOAD","U","23001CP","2024-02-25 03:33:10","146240","15.34613242","0.0010292","97.4376","120.7796","188.5135","171.5935","0","999","6368","0.0013359","0.00045008","0","4198054","0 SPACEBEE-165","1 55094U 23001CP  24056.14803410  .00045008  00000-0  13359-2 0  9997","2 55094  97.4376 120.7796 0010292 188.5135 171.5935 15.34613242 63683","2023-001CP","55094","6840.207","93.835","469.111","455.032","0"
"GENERATED VIA SPACETRACK.ORG API","18 SPCS","55094","SPACEBEE-165","PAYLOAD","U","23001CP","2024-02-25 14:30:25","803648","15.34655865","0.0010316","97.4372","121.2398","186.8852","173.2251","0","999","6375","0.0014631","0.00049396","0","4198379","0 SPACEBEE-165","1 55094U 23001CP  24056.60446532  .00049396  00000-0  14631-2 0  9994","2 55094  97.4372 121.2398 0010316 186.8852 173.2251 15.34655865 63752","2023-001CP","55094","6840.080","93.832","469.001","454.889","0"
"GENERATED VIA SPACETRACK.ORG API","18 SPCS","55094","SPACEBEE-165","PAYLOAD","U","23001CP","2024-02-25 17:38:12","934752","15.34667696","0.0010317","97.4371","121.3714","186.3956","173.7157","0","999","6377","0.0014658","0.00049507","0","4198683","0 SPACEBEE-165","1 55094U 23001CP  24056.73487193  .00049507  00000-0  14658-2 0  9999","2 55094  97.4371 121.3714 0010317 186.3956 173.7157 15.34667696 63772","2023-001CP","55094","6840.045","93.831","468.967","454.853","0"
"GENERATED VIA SPACETRACK.ORG API","18 SPCS","55094","SPACEBEE-165","PAYLOAD","U","23001CP","2024-02-26 03:01:33","803616","15.34702333","0.001034","97.437","121.7658","185.0933","175.0207","0","999","6383","0.0014116","0.00047715","0","4199244","0 SPACEBEE-165","1 55094U 23001CP  24057.12608569  .00047715  00000-0  14116-2 0  9993","2 55094  97.4370 121.7658 0010340 185.0933 175.0207 15.34702333 63835","2023-001CP","55094","6839.942","93.829","468.879","454.734","0"
"GENERATED VIA SPACETRACK.ORG API","18 SPCS","55094","SPACEBEE-165","PAYLOAD","U","23001CP","2024-02-26 17:06:33","542208","15.34758076","0.0010354","97.4368","122.3574","182.8526","177.266","0","999","6392","0.0013964","0.00047281","0","4199523","0 SPACEBEE-165","1 55094U 23001CP  24057.71288822  .00047281  00000-0  13964-2 0  9992","2 55094  97.4368 122.3574 0010354 182.8526 177.2660 15.34758076 63926","2023-001CP","55094","6839.776","93.826","468.723","454.559","0"
"GENERATED VIA SPACETRACK.ORG API","18 SPCS","55094","SPACEBEE-165","PAYLOAD","U","23001CP","2024-02-26 17:06:33","542208","15.34758076","0.0010354","97.4368","122.3574","182.8526","177.266","0","999","6392","0.0013964","0.00047281","0","4199532","0 SPACEBEE-165","1 55094U 23001CP  24057.71288822  .00047281  00000-0  13964-2 0  9992","2 55094  97.4368 122.3574 0010354 182.8526 177.2660 15.34758076 63926","2023-001CP","55094","6839.776","93.826","468.723","454.559","0"
"GENERATED VIA SPACETRACK.ORG API","18 SPCS","55094","SPACEBEE-165","PAYLOAD","U","23001CP","2024-02-27 10:19:17","640192","15.3481759","0.0010544","97.4367","123.0806","180.1499","179.9743","0","999","6403","0.0013081","0.00044356","0","4200159","0 SPACEBEE-165","1 55094U 23001CP  24058.43006528  .00044356  00000-0  13081-2 0  9993","2 55094  97.4367 123.0806 0010544 180.1499 179.9743 15.34817590 64033","2023-001CP","55094","6839.599","93.822","468.676","454.253","0"
"GENERATED VIA SPACETRACK.ORG API","18 SPCS","55094","SPACEBEE-165","PAYLOAD","U","23001CP","2024-02-27 18:08:42","402912","15.3483977","0.0010578","97.4366","123.4093","179.2548","180.8713","0","999","6408","0.0011553","0.00039167","0","4200440","0 SPACEBEE-165","1 55094U 23001CP  24058.75604633  .00039167  00000-0  11553-2 0  9995","2 55094  97.4366 123.4093 0010578 179.2548 180.8713 15.34839770 64082","2023-001CP","55094","6839.533","93.821","468.633","454.164","0"
"GENERATED VIA SPACETRACK.ORG API","18 SPCS","55094","SPACEBEE-165","PAYLOAD","U","23001CP","2024-02-27 18:08:42","402912","15.3483977","0.0010578","97.4366","123.4093","179.2548","180.8713","0","999","6408","0.0011553","0.00039167","0","4200457","0 SPACEBEE-165","1 55094U 23001CP  24058.75604633  .00039167  00000-0  11553-2 0  9995","2 55094  97.4366 123.4093 0010578 179.2548 180.8713 15.34839770 64082","2023-001CP","55094","6839.533","93.821","468.633","454.164","0"
"GENERATED VIA SPACETRACK.ORG API","18 SPCS","55094","SPACEBEE-165","PAYLOAD","U","23001CP","2024-02-28 03:31:59","498688","15.34868604","0.0010602","97.4366","123.8035","178.0726","182.056","0","999","6414","0.001111","0.0003769","0","4201083","0 SPACEBEE-165","1 55094U 23001CP  24059.14721642  .00037690  00000-0  11110-2 0  9997","2 55094  97.4366 123.8035 0010602 178.0726 182.0560 15.34868604 64144","2023-001CP","55094","6839.448","93.819","468.564","454.062","0"
"GENERATED VIA SPACETRACK.ORG API","18 SPCS","55094","SPACEBEE-165","PAYLOAD","U","23001CP","2024-02-28 17:36:54","29088","15.34907744","0.0010634","97.4364","124.3953","176.092","184.0408","0","999","6423","0.00099278","0.00033695","0","4201365","0 SPACEBEE-165","1 55094U 23001CP  24059.73395867  .00033695  00000-0  99278-3 0  9991","2 55094  97.4364 124.3953 0010634 176.0920 184.0408 15.34907744 64238","2023-001CP","55094","6839.332","93.817","468.469","453.924","0"
"GENERATED VIA SPACETRACK.ORG API","18 SPCS","55094","SPACEBEE-165","PAYLOAD","U","23001CP","2024-02-29 03:00:09","663840","15.34934129","0.0010629","97.4363","124.7899","174.8395","185.296","0","999","6429","0.00099305","0.00033733","0","4201606","0 SPACEBEE-165","1 55094U 23001CP  24060.12511185  .00033733  00000-0  99305-3 0  9993","2 55094  97.4363 124.7899 0010629 174.8395 185.2960 15.34934129 64295","2023-001CP","55094","6839.253","93.815","468.388","453.849","0"
"GENERATED VIA SPACETRACK.ORG API","18 SPCS","55094","SPACEBEE-165","PAYLOAD","U","23001CP","2024-02-29 03:00:09","663840","15.34934129","0.0010629","97.4363","124.7899","174.8395","185.296","0","999","6429","0.00099305","0.00033733","0","4201938","0 SPACEBEE-165","1 55094U 23001CP  24060.12511185  .00033733  00000-0  99305-3 0  9993","2 55094  97.4363 124.7899 0010629 174.8395 185.2960 15.34934129 64295","2023-001CP","55094","6839.253","93.815","468.388","453.849","0"
"GENERATED VIA SPACETRACK.ORG API","18 SPCS","55094","SPACEBEE-165","PAYLOAD","U","23001CP","2024-02-29 17:05:02","25600","15.34973084","0.0010711","97.4364","125.3813","172.6194","187.5209","0","999","6438","0.00096064","0.00032666","0","4202276","0 SPACEBEE-165","1 55094U 23001CP  24060.71182900  .00032666  00000-0  96064-3 0  9990","2 55094  97.4364 125.3813 0010711 172.6194 187.5209 15.34973084 64388","2023-001CP","55094","6839.137","93.813","468.328","453.677","0"
"GENERATED VIA SPACETRACK.ORG API","18 SPCS","55094","SPACEBEE-165","PAYLOAD","U","23001CP","2024-03-01 04:02:08","515968","15.35005173","0.0010719","97.4363","125.8414","171.0672","189.0763","0","999","6445","0.0010216","0.0003479","0","4202525","0 SPACEBEE-165","1 55094U 23001CP  24061.16815412  .00034790  00000-0  10216-2 0  9995","2 55094  97.4363 125.8414 0010719 171.0672 189.0763 15.35005173 64457","2023-001CP","55094","6839.042","93.811","468.238","453.576","0"
"GENERATED VIA SPACETRACK.ORG API","18 SPCS","55094","SPACEBEE-165","PAYLOAD","U","23001CP","2024-03-01 04:02:08","515968","15.35005173","0.0010719","97.4363","125.8414","171.0672","189.0763","0","999","6445","0.0010216","0.0003479","0","4202819","0 SPACEBEE-165","1 55094U 23001CP  24061.16815412  .00034790  00000-0  10216-2 0  9995","2 55094  97.4363 125.8414 0010719 171.0672 189.0763 15.35005173 64457","2023-001CP","55094","6839.042","93.811","468.238","453.576","0"
"GENERATED VIA SPACETRACK.ORG API","18 SPCS","55094","SPACEBEE-165","PAYLOAD","U","23001CP","2024-03-01 18:06:58","430880","15.35049899","0.0010686","97.4362","126.4334","168.9083","191.2398","0","999","6454","0.0010818","0.00036907","0","4203428","0 SPACEBEE-165","1 55094U 23001CP  24061.75484295  .00036907  00000-0  10818-2 0  9991","2 55094  97.4362 126.4334 0010686 168.9083 191.2398 15.35049899 64540","2023-001CP","55094","6838.909","93.808","468.082","453.466","0"
"GENERATED VIA SPACETRACK.ORG API","18 SPCS","55094","SPACEBEE-165","PAYLOAD","U","23001CP","2024-03-02 03:30:10","854144","15.35081037","0.0010704","97.4361","126.8279","167.7697","192.3808","0","999","6460","0.0011288","0.0003856","0","4204326","0 SPACEBEE-165","1 55094U 23001CP  24062.14595896  .00038560  00000-0  11288-2 0  9994","2 55094  97.4361 126.8279 0010704 167.7697 192.3808 15.35081037 64605","2023-001CP","55094","6838.817","93.806","468.002","453.362","0"
